{
  "type": "FeatureCollection",
  "features": [
    {
      "type": "Feature",
      "properties": {
        "norad_id": 61183,
        "name": "GSAT0226 (GALILEO 31)",
        "group": "gnss",
        "lat": 11.807259478810089,
        "lon": -125.55305217744959,
        "alt_km": 23221.254483146407,
        "timestamp": "2025-12-25T11:37:44.679399+00:00",
        "meta_object_name": "GSAT0226 (GALILEO 31)",
        "meta_object_id": "2024-167B",
        "meta_epoch": "2025-12-25T01:44:41.758656",
        "meta_mean_motion": 1.70473602,
        "meta_eccentricity": 0.0001252,
        "meta_inclination": 55.236,
        "meta_ra_of_asc_node": 226.0978,
        "meta_arg_of_pericenter": 109.4084,
        "meta_mean_anomaly": 12.3648,
        "meta_ephemeris_type": 0,
        "meta_classification_type": "U",
        "meta_norad_cat_id": 61183,
        "meta_element_set_no": 999,
        "meta_rev_at_epoch": 788,
        "meta_bstar": 0,
        "meta_mean_motion_dot": 7.1e-07,
        "meta_mean_motion_ddot": 0,
        "tle_line1": "1 61183U 24167B   25359.07270554  .00000071  00000+0  00000+0 0  9999",
        "tle_line2": "2 61183  55.2360 226.0978 0001252 109.4084  12.3648  1.70473602  7889"
      },
      "geometry": {
        "type": "Point",
        "coordinates": [
          -125.55305217744959,
          11.807259478810089
        ]
      }
    },
    {
      "type": "Feature",
      "properties": {
        "norad_id": 61186,
        "name": "BEIDOU-3 M25 (C47)",
        "group": "gnss",
        "lat": -0.3366932539751772,
        "lon": -51.976483948348715,
        "alt_km": 21520.75505438951,
        "timestamp": "2025-12-25T11:37:44.679410+00:00",
        "meta_object_name": "BEIDOU-3 M25 (C47)",
        "meta_object_id": "2024-168B",
        "meta_epoch": "2025-12-25T00:55:03.681120",
        "meta_mean_motion": 1.86230021,
        "meta_eccentricity": 0.0005413,
        "meta_inclination": 54.6311,
        "meta_ra_of_asc_node": 308.2949,
        "meta_arg_of_pericenter": 300.1318,
        "meta_mean_anomaly": 120.184,
        "meta_ephemeris_type": 0,
        "meta_classification_type": "U",
        "meta_norad_cat_id": 61186,
        "meta_element_set_no": 999,
        "meta_rev_at_epoch": 854,
        "meta_bstar": 0,
        "meta_mean_motion_dot": -5.4e-07,
        "meta_mean_motion_ddot": 0,
        "tle_line1": "1 61186U 24168B   25359.03823705 -.00000054  00000+0  00000+0 0  9993",
        "tle_line2": "2 61186  54.6311 308.2949 0005413 300.1318 120.1840  1.86230021  8544"
      },
      "geometry": {
        "type": "Point",
        "coordinates": [
          -51.976483948348715,
          -0.3366932539751772
        ]
      }
    },
    {
      "type": "Feature",
      "properties": {
        "norad_id": 61187,
        "name": "BEIDOU-3 M27 (C49)",
        "group": "gnss",
        "lat": 35.53972513934927,
        "lon": 97.78439690929527,
        "alt_km": 21530.135136864435,
        "timestamp": "2025-12-25T11:37:44.679423+00:00",
        "meta_object_name": "BEIDOU-3 M27 (C49)",
        "meta_object_id": "2024-168C",
        "meta_epoch": "2025-12-25T00:22:38.801568",
        "meta_mean_motion": 1.86230181,
        "meta_eccentricity": 0.0002544,
        "meta_inclination": 54.6266,
        "meta_ra_of_asc_node": 308.2793,
        "meta_arg_of_pericenter": 341.3451,
        "meta_mean_anomaly": 198.8284,
        "meta_ephemeris_type": 0,
        "meta_classification_type": "U",
        "meta_norad_cat_id": 61187,
        "meta_element_set_no": 999,
        "meta_rev_at_epoch": 601,
        "meta_bstar": 0,
        "meta_mean_motion_dot": -5.4e-07,
        "meta_mean_motion_ddot": 0,
        "tle_line1": "1 61187U 24168C   25359.01572687 -.00000054  00000+0  00000+0 0  9992",
        "tle_line2": "2 61187  54.6266 308.2793 0002544 341.3451 198.8284  1.86230181  6019"
      },
      "geometry": {
        "type": "Point",
        "coordinates": [
          97.78439690929527,
          35.53972513934927
        ]
      }
    },
    {
      "type": "Feature",
      "properties": {
        "norad_id": 62339,
        "name": "GPS BIII-7  (PRN 01)",
        "group": "gnss",
        "lat": 52.766473049027745,
        "lon": 93.62873560302474,
        "alt_km": 20191.05475510188,
        "timestamp": "2025-12-25T11:37:44.679434+00:00",
        "meta_object_name": "GPS BIII-7  (PRN 01)",
        "meta_object_id": "2024-242A",
        "meta_epoch": "2025-12-24T14:08:35.073312",
        "meta_mean_motion": 2.00568073,
        "meta_eccentricity": 0.00128162,
        "meta_inclination": 54.9201,
        "meta_ra_of_asc_node": 341.2611,
        "meta_arg_of_pericenter": 346.3759,
        "meta_mean_anomaly": 190.3817,
        "meta_ephemeris_type": 0,
        "meta_classification_type": "U",
        "meta_norad_cat_id": 62339,
        "meta_element_set_no": 999,
        "meta_rev_at_epoch": 775,
        "meta_bstar": 0,
        "meta_mean_motion_dot": -6.2e-07,
        "meta_mean_motion_ddot": 0,
        "tle_line1": "1 62339U 24242A   25358.58929483 -.00000062  00000+0  00000+0 0  9995",
        "tle_line2": "2 62339  54.9201 341.2611 0012816 346.3759 190.3817  2.00568073  7758"
      },
      "geometry": {
        "type": "Point",
        "coordinates": [
          93.62873560302474,
          52.766473049027745
        ]
      }
    },
    {
      "type": "Feature",
      "properties": {
        "norad_id": 62850,
        "name": "NVS-02 (IRNSS-1K)",
        "group": "gnss",
        "lat": 2.2388074426298434,
        "lon": 137.1985417806426,
        "alt_km": 19753.56659520586,
        "timestamp": "2025-12-25T11:37:44.679448+00:00",
        "meta_object_name": "NVS-02 (IRNSS-1K)",
        "meta_object_id": "2025-020A",
        "meta_epoch": "2025-12-23T02:48:28.612512",
        "meta_mean_motion": 2.17602057,
        "meta_eccentricity": 0.73473509,
        "meta_inclination": 20.9588,
        "meta_ra_of_asc_node": 323.9017,
        "meta_arg_of_pericenter": 32.9618,
        "meta_mean_anomaly": 356.3768,
        "meta_ephemeris_type": 0,
        "meta_classification_type": "U",
        "meta_norad_cat_id": 62850,
        "meta_element_set_no": 999,
        "meta_rev_at_epoch": 714,
        "meta_bstar": 0.00026724694,
        "meta_mean_motion_dot": 1.47e-06,
        "meta_mean_motion_ddot": 0,
        "tle_line1": "1 62850U 25020A   25357.11699783  .00000147  00000+0  26725-3 0  9992",
        "tle_line2": "2 62850  20.9588 323.9017 7347350  32.9618 356.3768  2.17602057  7148"
      },
      "geometry": {
        "type": "Point",
        "coordinates": [
          137.1985417806426,
          2.2388074426298434
        ]
      }
    },
    {
      "type": "Feature",
      "properties": {
        "norad_id": 62876,
        "name": "QZS-6 (QZSS/PRN 200)",
        "group": "gnss",
        "lat": -0.061293371271328265,
        "lon": -0.7681191982179617,
        "alt_km": 35784.99778476531,
        "timestamp": "2025-12-25T11:37:44.679460+00:00",
        "meta_object_name": "QZS-6 (QZSS/PRN 200)",
        "meta_object_id": "2025-023A",
        "meta_epoch": "2025-12-24T19:49:25.245696",
        "meta_mean_motion": 1.00270652,
        "meta_eccentricity": 0.00016452,
        "meta_inclination": 0.0583,
        "meta_ra_of_asc_node": 74.0221,
        "meta_arg_of_pericenter": 207.3878,
        "meta_mean_anomaly": 200.0828,
        "meta_ephemeris_type": 0,
        "meta_classification_type": "U",
        "meta_norad_cat_id": 62876,
        "meta_element_set_no": 999,
        "meta_rev_at_epoch": 321,
        "meta_bstar": 0,
        "meta_mean_motion_dot": -2.12e-06,
        "meta_mean_motion_ddot": 0,
        "tle_line1": "1 62876U 25023A   25358.82598664 -.00000212  00000+0  00000+0 0  9996",
        "tle_line2": "2 62876   0.0583  74.0221 0001645 207.3878 200.0828  1.00270652  3213"
      },
      "geometry": {
        "type": "Point",
        "coordinates": [
          -0.7681191982179617,
          -0.061293371271328265
        ]
      }
    },
    {
      "type": "Feature",
      "properties": {
        "norad_id": 63130,
        "name": "COSMOS 2584 (704K)",
        "group": "gnss",
        "lat": -21.053671241870127,
        "lon": 68.38391768792079,
        "alt_km": 19141.624220982176,
        "timestamp": "2025-12-25T11:37:44.679471+00:00",
        "meta_object_name": "COSMOS 2584 (704K)",
        "meta_object_id": "2025-042A",
        "meta_epoch": "2025-12-24T02:34:25.549824",
        "meta_mean_motion": 2.13102981,
        "meta_eccentricity": 0.00077651,
        "meta_inclination": 64.9819,
        "meta_ra_of_asc_node": 78.7588,
        "meta_arg_of_pericenter": 220.6893,
        "meta_mean_anomaly": 139.3012,
        "meta_ephemeris_type": 0,
        "meta_classification_type": "U",
        "meta_norad_cat_id": 63130,
        "meta_element_set_no": 999,
        "meta_rev_at_epoch": 631,
        "meta_bstar": 0,
        "meta_mean_motion_dot": 1e-08,
        "meta_mean_motion_ddot": 0,
        "tle_line1": "1 63130U 25042A   25358.10724016  .00000001  00000+0  00000+0 0  9999",
        "tle_line2": "2 63130  64.9819  78.7588 0007765 220.6893 139.3012  2.13102981  6316"
      },
      "geometry": {
        "type": "Point",
        "coordinates": [
          68.38391768792079,
          -21.053671241870127
        ]
      }
    }
  ]
}